start=new Date('2023-05-20T00:00:00.000Z').valueOf();
sats=[{"BSTAR":"0.00009777700000","MEAN_ELEMENT_THEORY":"SGP4","DECAY_DATE":null,"OBJECT_TYPE":"PAYLOAD","NORAD_CAT_ID":"52105","INCLINATION":"53.2168","ELEMENT_SET_NO":"999","CLASSIFICATION_TYPE":"U","SITE":"AFETR","PERIAPSIS":"538.890","TIME_SYSTEM":"UTC","MEAN_MOTION_DOT":"0.00001269","OBJECT_ID":"2022-029T","OBJECT_NAME":"STARLINK-3706","RCS_SIZE":"LARGE","REF_FRAME":"TEME","APOAPSIS":"540.532","MEAN_ANOMALY":"276.2181","REV_AT_EPOCH":"6607","ECCENTRICITY":"0.00011870","FILE":"3912278","TLE_LINE2":"2 52105  53.2168 359.5942 0001187  83.8947 276.2181 15.08851240 66073","EPOCH":"2023-05-19T21:31:48.825696","LAUNCH_DATE":"2022-03-19","SEMIMAJOR_AXIS":"6917.846","CENTER_NAME":"EARTH","ARG_OF_PERICENTER":"83.8947","TLE_LINE1":"1 52105U 22029T   23139.89709289  .00001269  00000-0  97777-4 0  9997","GP_ID":"232161524","EPHEMERIS_TYPE":"0","MEAN_MOTION":"15.08851240","COUNTRY_CODE":"US","MEAN_MOTION_DDOT":"0.0000000000000","RA_OF_ASC_NODE":"359.5942","PERIOD":"95.437"},{"RA_OF_ASC_NODE":"9.7990","PERIOD":"95.437","COUNTRY_CODE":"US","MEAN_MOTION_DDOT":"0.0000000000000","MEAN_MOTION":"15.08846129","TLE_LINE1":"1 52106U 22029U   23139.85105550  .00001280  00000-0  98487-4 0  9997","EPHEMERIS_TYPE":"0","GP_ID":"232161776","CENTER_NAME":"EARTH","ARG_OF_PERICENTER":"75.5387","EPOCH":"2023-05-19T20:25:31.195200","LAUNCH_DATE":"2022-03-19","SEMIMAJOR_AXIS":"6917.862","TLE_LINE2":"2 52106  53.2180   9.7990 0000966  75.5387 284.5712 15.08846129 65931","FILE":"3912278","ECCENTRICITY":"0.00009660","MEAN_ANOMALY":"284.5712","APOAPSIS":"540.395","REV_AT_EPOCH":"6593","REF_FRAME":"TEME","RCS_SIZE":"LARGE","OBJECT_ID":"2022-029U","OBJECT_NAME":"STARLINK-3670","MEAN_MOTION_DOT":"0.00001280","PERIAPSIS":"539.058","TIME_SYSTEM":"UTC","SITE":"AFETR","CLASSIFICATION_TYPE":"U","ELEMENT_SET_NO":"999","INCLINATION":"53.2180","NORAD_CAT_ID":"52106","DECAY_DATE":null,"MEAN_ELEMENT_THEORY":"SGP4","OBJECT_TYPE":"PAYLOAD","BSTAR":"0.00009848700000"},{"DECAY_DATE":null,"MEAN_ELEMENT_THEORY":"SGP4","OBJECT_TYPE":"PAYLOAD","BSTAR":"0.00009520100000","NORAD_CAT_ID":"52107","INCLINATION":"53.2173","ELEMENT_SET_NO":"999","CLASSIFICATION_TYPE":"U","SITE":"AFETR","MEAN_MOTION_DOT":"0.00001228","TIME_SYSTEM":"UTC","PERIAPSIS":"539.022","OBJECT_NAME":"STARLINK-3658","OBJECT_ID":"2022-029V","REF_FRAME":"TEME","RCS_SIZE":"LARGE","ECCENTRICITY":"0.00010140","REV_AT_EPOCH":"6607","MEAN_ANOMALY":"272.8956","APOAPSIS":"540.425","FILE":"3912278","TLE_LINE2":"2 52107  53.2173 359.6144 0001014  87.2152 272.8956 15.08847021 66075","EPOCH":"2023-05-19T21:25:08.135328","LAUNCH_DATE":"2022-03-19","SEMIMAJOR_AXIS":"6917.859","GP_ID":"232162498","EPHEMERIS_TYPE":"0","TLE_LINE1":"1 52107U 22029V   23139.89245527  .00001228  00000-0  95201-4 0  9994","CENTER_NAME":"EARTH","ARG_OF_PERICENTER":"87.2152","MEAN_MOTION_DDOT":"0.0000000000000","COUNTRY_CODE":"US","MEAN_MOTION":"15.08847021","PERIOD":"95.437","RA_OF_ASC_NODE":"359.6144"},{"EPOCH":"2023-05-19T21:35:44.105856","LAUNCH_DATE":"2022-03-19","SEMIMAJOR_AXIS":"6917.865","CENTER_NAME":"EARTH","ARG_OF_PERICENTER":"83.7625","TLE_LINE1":"1 52108U 22029W   23139.89981604  .00001351  00000-0  10293-3 0  9992","GP_ID":"232161274","EPHEMERIS_TYPE":"0","MEAN_MOTION":"15.08845120","COUNTRY_CODE":"US","MEAN_MOTION_DDOT":"0.0000000000000","RA_OF_ASC_NODE":"359.5797","PERIOD":"95.437","RCS_SIZE":"LARGE","REF_FRAME":"TEME","APOAPSIS":"540.513","MEAN_ANOMALY":"276.3496","REV_AT_EPOCH":"6607","ECCENTRICITY":"0.00011320","FILE":"3912278","TLE_LINE2":"2 52108  53.2176 359.5797 0001132  83.7625 276.3496 15.08845120 66075","CLASSIFICATION_TYPE":"U","SITE":"AFETR","PERIAPSIS":"538.947","TIME_SYSTEM":"UTC","MEAN_MOTION_DOT":"0.00001351","OBJECT_NAME":"STARLINK-3698","OBJECT_ID":"2022-029W","BSTAR":"0.00010293000000","MEAN_ELEMENT_THEORY":"SGP4","DECAY_DATE":null,"OBJECT_TYPE":"PAYLOAD","NORAD_CAT_ID":"52108","INCLINATION":"53.2176","ELEMENT_SET_NO":"999"},{"MEAN_MOTION":"15.08843896","COUNTRY_CODE":"US","MEAN_MOTION_DDOT":"0.0000000000000","RA_OF_ASC_NODE":"359.5985","PERIOD":"95.437","SEMIMAJOR_AXIS":"6917.868","LAUNCH_DATE":"2022-03-19","EPOCH":"2023-05-19T21:30:26.058816","CENTER_NAME":"EARTH","ARG_OF_PERICENTER":"86.6267","TLE_LINE1":"1 52110U 22029Y   23139.89613494  .00001451  00000-0  10921-3 0  9993","EPHEMERIS_TYPE":"0","GP_ID":"232161025","FILE":"3912278","TLE_LINE2":"2 52110  53.2182 359.5985 0001006  86.6267 273.4841 15.08843896 66078","RCS_SIZE":"LARGE","REF_FRAME":"TEME","APOAPSIS":"540.429","MEAN_ANOMALY":"273.4841","REV_AT_EPOCH":"6607","ECCENTRICITY":"0.00010060","PERIAPSIS":"539.038","TIME_SYSTEM":"UTC","MEAN_MOTION_DOT":"0.00001451","OBJECT_NAME":"STARLINK-3687","OBJECT_ID":"2022-029Y","CLASSIFICATION_TYPE":"U","SITE":"AFETR","INCLINATION":"53.2182","ELEMENT_SET_NO":"999","BSTAR":"0.00010921000000","OBJECT_TYPE":"PAYLOAD","DECAY_DATE":null,"MEAN_ELEMENT_THEORY":"SGP4","NORAD_CAT_ID":"52110"},{"INCLINATION":"53.2170","ELEMENT_SET_NO":"999","OBJECT_TYPE":"PAYLOAD","DECAY_DATE":null,"MEAN_ELEMENT_THEORY":"SGP4","BSTAR":"0.00008256400000","NORAD_CAT_ID":"52111","MEAN_MOTION_DOT":"0.00001027","PERIAPSIS":"539.058","TIME_SYSTEM":"UTC","OBJECT_ID":"2022-029Z","OBJECT_NAME":"STARLINK-3708","CLASSIFICATION_TYPE":"U","SITE":"AFETR","FILE":"3912278","TLE_LINE2":"2 52111  53.2170 359.6604 0000969  92.6260 267.4843 15.08845551 66077","REF_FRAME":"TEME","RCS_SIZE":"LARGE","ECCENTRICITY":"0.00009690","MEAN_ANOMALY":"267.4843","APOAPSIS":"540.399","REV_AT_EPOCH":"6607","COUNTRY_CODE":"US","MEAN_MOTION_DDOT":"0.0000000000000","MEAN_MOTION":"15.08845551","RA_OF_ASC_NODE":"359.6604","PERIOD":"95.437","LAUNCH_DATE":"2022-03-19","EPOCH":"2023-05-19T21:09:14.390784","SEMIMAJOR_AXIS":"6917.863","TLE_LINE1":"1 52111U 22029Z   23139.88141656  .00001027  00000-0  82564-4 0  9991","EPHEMERIS_TYPE":"0","GP_ID":"232162276","CENTER_NAME":"EARTH","ARG_OF_PERICENTER":"92.6260"},{"EPOCH":"2023-05-19T21:19:50.321568","LAUNCH_DATE":"2022-03-19","SEMIMAJOR_AXIS":"6917.872","ARG_OF_PERICENTER":"90.8664","CENTER_NAME":"EARTH","TLE_LINE1":"1 52112U 22029AA  23139.88877687  .00001082  00000-0  86065-4 0  9993","EPHEMERIS_TYPE":"0","GP_ID":"232161999","MEAN_MOTION":"15.08842598","COUNTRY_CODE":"US","MEAN_MOTION_DDOT":"0.0000000000000","RA_OF_ASC_NODE":"359.6294","PERIOD":"95.437","RCS_SIZE":"LARGE","REF_FRAME":"TEME","APOAPSIS":"540.545","MEAN_ANOMALY":"269.2462","REV_AT_EPOCH":"6607","ECCENTRICITY":"0.00011670","FILE":"3912278","TLE_LINE2":"2 52112  53.2173 359.6294 0001167  90.8664 269.2462 15.08842598 66070","CLASSIFICATION_TYPE":"U","SITE":"AFETR","PERIAPSIS":"538.930","TIME_SYSTEM":"UTC","MEAN_MOTION_DOT":"0.00001082","OBJECT_ID":"2022-029AA","OBJECT_NAME":"STARLINK-3734","BSTAR":"0.00008606500000","MEAN_ELEMENT_THEORY":"SGP4","DECAY_DATE":null,"OBJECT_TYPE":"PAYLOAD","NORAD_CAT_ID":"52112","INCLINATION":"53.2173","ELEMENT_SET_NO":"999"},{"NORAD_CAT_ID":"52113","DECAY_DATE":null,"OBJECT_TYPE":"PAYLOAD","MEAN_ELEMENT_THEORY":"SGP4","BSTAR":"0.00007275400000","ELEMENT_SET_NO":"999","INCLINATION":"53.2173","SITE":"AFETR","CLASSIFICATION_TYPE":"U","OBJECT_ID":"2022-029AB","OBJECT_NAME":"STARLINK-3736","MEAN_MOTION_DOT":"0.00000870","PERIAPSIS":"539.111","TIME_SYSTEM":"UTC","ECCENTRICITY":"0.00008980","APOAPSIS":"540.353","MEAN_ANOMALY":"269.9912","REV_AT_EPOCH":"6607","REF_FRAME":"TEME","RCS_SIZE":"LARGE","TLE_LINE2":"2 52113  53.2173 359.6948 0000898  90.1183 269.9912 15.08844336 66075","FILE":"3912278","TLE_LINE1":"1 52113U 22029AB  23139.87405834  .00000870  00000-0  72754-4 0  9998","GP_ID":"232160776","EPHEMERIS_TYPE":"0","CENTER_NAME":"EARTH","ARG_OF_PERICENTER":"90.1183","LAUNCH_DATE":"2022-03-19","SEMIMAJOR_AXIS":"6917.867","EPOCH":"2023-05-19T20:58:38.640576","RA_OF_ASC_NODE":"359.6948","PERIOD":"95.437","COUNTRY_CODE":"US","MEAN_MOTION_DDOT":"0.0000000000000","MEAN_MOTION":"15.08844336"},{"RA_OF_ASC_NODE":"359.6446","PERIOD":"95.437","MEAN_MOTION":"15.08843244","COUNTRY_CODE":"US","MEAN_MOTION_DDOT":"0.0000000000000","ARG_OF_PERICENTER":"87.2889","CENTER_NAME":"EARTH","TLE_LINE1":"1 52114U 22029AC  23139.88510081  .00001162  00000-0  91072-4 0  9990","GP_ID":"232161525","EPHEMERIS_TYPE":"0","SEMIMAJOR_AXIS":"6917.870","LAUNCH_DATE":"2022-03-19","EPOCH":"2023-05-19T21:14:32.709984","TLE_LINE2":"2 52114  53.2169 359.6446 0001062  87.2889 272.8225 15.08843244 66075","FILE":"3912278","MEAN_ANOMALY":"272.8225","APOAPSIS":"540.470","REV_AT_EPOCH":"6607","ECCENTRICITY":"0.00010620","RCS_SIZE":"LARGE","REF_FRAME":"TEME","OBJECT_NAME":"STARLINK-3737","OBJECT_ID":"2022-029AC","PERIAPSIS":"539.001","TIME_SYSTEM":"UTC","MEAN_MOTION_DOT":"0.00001162","SITE":"AFETR","CLASSIFICATION_TYPE":"U","ELEMENT_SET_NO":"999","INCLINATION":"53.2169","NORAD_CAT_ID":"52114","BSTAR":"0.00009107200000","DECAY_DATE":null,"OBJECT_TYPE":"PAYLOAD","MEAN_ELEMENT_THEORY":"SGP4"},{"INCLINATION":"53.2178","ELEMENT_SET_NO":"999","BSTAR":"0.00007327600000","DECAY_DATE":null,"MEAN_ELEMENT_THEORY":"SGP4","OBJECT_TYPE":"PAYLOAD","NORAD_CAT_ID":"52115","TIME_SYSTEM":"UTC","PERIAPSIS":"539.083","MEAN_MOTION_DOT":"0.00000879","OBJECT_ID":"2022-029AD","OBJECT_NAME":"STARLINK-3685","CLASSIFICATION_TYPE":"U","SITE":"AFETR","FILE":"3912278","TLE_LINE2":"2 52115  53.2178 359.7286 0000948  92.2414 267.8686 15.08842197 66072","RCS_SIZE":"LARGE","REF_FRAME":"TEME","REV_AT_EPOCH":"6607","MEAN_ANOMALY":"267.8686","APOAPSIS":"540.394","ECCENTRICITY":"0.00009480","MEAN_MOTION":"15.08842197","MEAN_MOTION_DDOT":"0.0000000000000","COUNTRY_CODE":"US","PERIOD":"95.437","RA_OF_ASC_NODE":"359.7286","EPOCH":"2023-05-19T20:48:02.930112","LAUNCH_DATE":"2022-03-19","SEMIMAJOR_AXIS":"6917.874","CENTER_NAME":"EARTH","ARG_OF_PERICENTER":"92.2414","GP_ID":"232161777","EPHEMERIS_TYPE":"0","TLE_LINE1":"1 52115U 22029AD  23139.86670058  .00000879  00000-0  73276-4 0  9990"}];
